*******************************************************************************
Ephemeris / WWW_USER Mon Mar 24 11:28:34 2025 Pasadena, USA      / Horizons    
*******************************************************************************
Target body name: (2013 AZ60)                     {source: JPL#49}
Center body name: Earth (399)                     {source: DE441}
Center-site name: Mauna Kea
*******************************************************************************
Start time      : A.D. 2018-Aug-02 05:08:00.0000 UT      
Stop  time      : A.D. 2018-Aug-02 15:48:00.0000 UT      
Step-size       : 1 minutes
*******************************************************************************
Target pole/equ : undefined
Target radii    : undefined                                                    
Center geodetic : 204.5278, 19.8260847, 4.21024   {E-lon(deg),Lat(deg),Alt(km)}
Center cylindric: 204.5278, 6006.35451, 2151.0229 {E-lon(deg),Dxy(km),Dz(km)}
Center pole/equ : ITRF93                          {East-longitude positive}
Center radii    : 6378.137, 6378.137, 6356.752 km {Equator_a, b, pole_c}       
Target primary  : Sun
Vis. interferer : MOON (R_eq= 1737.400) km        {source: DE441}
Rel. light bend : Sun                             {source: DE441}
Rel. lght bnd GM: 1.3271E+11 km^3/s^2                                          
Small-body perts: Yes                             {source: SB441-N16}
Atmos refraction: NO (AIRLESS)
RA format       : HMS
Time format     : CAL 
Calendar mode   : Mixed Julian/Gregorian
RTS-only print  : NO       
EOP file        : eop.250321.p250617                                           
EOP coverage    : DATA-BASED 1962-JAN-20 TO 2025-MAR-21. PREDICTS-> 2025-JUN-16
Units conversion: 1 au= 149597870.700 km, c= 299792.458 km/s, 1 day= 86400.0 s 
Table cut-offs 1: Elevation (-90.0deg=NO ),Airmass (>38.000=NO), Daylight (YES)
Table cut-offs 2: Solar elongation (  0.0,180.0=NO ),Local Hour Angle( 0.0=NO )
Table cut-offs 3: RA/DEC angular rate (     0.0=NO )                           
*******************************************************************************
Initial IAU76/J2000 heliocentric ecliptic osculating elements (au, days, deg.):
  EPOCH=  2457400.5 ! 2016-Jan-13.00 (TDB)         Residual RMS= .1326         
   EC= .9891456016948332   QR= 7.910280980491398   TP= 2456989.3208761909      
   OM= 349.2102750469422   W=  158.2320149266156   IN= 16.53862471305098       
  Equivalent ICRF heliocentric cartesian coordinates (au, au/d):
   X=-8.215502218447208E+00  Y= 1.083611838195559E+00  Z= 3.298265209415168E-01
  VX=-2.822922434188891E-03 VY=-6.008885131743716E-03 VZ=-5.184670886061429E-03
Asteroid physical parameters (km, seconds, rotational period in hours):        
   GM= n.a.                RAD= n.a.               ROTPER= 9.39                
   H= 10.3                 G= .150                 B-V= n.a.                   
                           ALBEDO= n.a.            STYP= n.a.                  
*******************************************************************************
 Date__(UT)__HR:MN     R.A._________(ICRF)_________DEC
******************************************************
$$SOE
 2018-Aug-02 13:20  m  13 21 52.055365 -20 41 20.64796
 2018-Aug-02 13:21  m  13 21 52.064745 -20 41 20.67584
 2018-Aug-02 13:22  m  13 21 52.074126 -20 41 20.70372
 2018-Aug-02 13:23  m  13 21 52.083507 -20 41 20.73161
 2018-Aug-02 13:24  m  13 21 52.092889 -20 41 20.75951
 2018-Aug-02 13:25  m  13 21 52.102271 -20 41 20.78741
 2018-Aug-02 13:26  m  13 21 52.111654 -20 41 20.81531
 2018-Aug-02 13:27  m  13 21 52.121038 -20 41 20.84322
 2018-Aug-02 13:28  m  13 21 52.130422 -20 41 20.87114
 2018-Aug-02 13:29  m  13 21 52.139806 -20 41 20.89906
 2018-Aug-02 13:30  m  13 21 52.149191 -20 41 20.92699
 2018-Aug-02 13:31  m  13 21 52.158577 -20 41 20.95493
 2018-Aug-02 13:32  m  13 21 52.167963 -20 41 20.98287
 2018-Aug-02 13:33  m  13 21 52.177350 -20 41 21.01081
 2018-Aug-02 13:34  m  13 21 52.186737 -20 41 21.03876
 2018-Aug-02 13:35  m  13 21 52.196125 -20 41 21.06672
 2018-Aug-02 13:36  m  13 21 52.205513 -20 41 21.09468
 2018-Aug-02 13:37  m  13 21 52.214901 -20 41 21.12265
 2018-Aug-02 13:38  m  13 21 52.224291 -20 41 21.15062
 2018-Aug-02 13:39  m  13 21 52.233680 -20 41 21.17860
 2018-Aug-02 13:40  m  13 21 52.243070 -20 41 21.20658
 2018-Aug-02 13:41  m  13 21 52.252461 -20 41 21.23457
 2018-Aug-02 13:42  m  13 21 52.261852 -20 41 21.26256
 2018-Aug-02 13:43  m  13 21 52.271244 -20 41 21.29056
 2018-Aug-02 13:44  m  13 21 52.280636 -20 41 21.31857
 2018-Aug-02 13:45  m  13 21 52.290028 -20 41 21.34658
 2018-Aug-02 13:46  m  13 21 52.299421 -20 41 21.37460
 2018-Aug-02 13:47  m  13 21 52.308814 -20 41 21.40262
 2018-Aug-02 13:48  m  13 21 52.318208 -20 41 21.43065
 2018-Aug-02 13:49  m  13 21 52.327602 -20 41 21.45869
 2018-Aug-02 13:50  m  13 21 52.336997 -20 41 21.48673
 2018-Aug-02 13:51  m  13 21 52.346392 -20 41 21.51477
 2018-Aug-02 13:52  m  13 21 52.355788 -20 41 21.54282
 2018-Aug-02 13:53  m  13 21 52.365184 -20 41 21.57088
 2018-Aug-02 13:54  m  13 21 52.374580 -20 41 21.59894
 2018-Aug-02 13:55  m  13 21 52.383977 -20 41 21.62701
 2018-Aug-02 13:56  m  13 21 52.393374 -20 41 21.65508
 2018-Aug-02 13:57  m  13 21 52.402772 -20 41 21.68316
 2018-Aug-02 13:58  m  13 21 52.412170 -20 41 21.71125
 2018-Aug-02 13:59  m  13 21 52.421569 -20 41 21.73934
 2018-Aug-02 14:00  m  13 21 52.430968 -20 41 21.76744
 2018-Aug-02 14:01  m  13 21 52.440367 -20 41 21.79554
 2018-Aug-02 14:02  m  13 21 52.449766 -20 41 21.82365
 2018-Aug-02 14:03  m  13 21 52.459167 -20 41 21.85176
 2018-Aug-02 14:04  m  13 21 52.468567 -20 41 21.87988
 2018-Aug-02 14:05  m  13 21 52.477968 -20 41 21.90801
 2018-Aug-02 14:06  m  13 21 52.487369 -20 41 21.93614
 2018-Aug-02 14:07  m  13 21 52.496771 -20 41 21.96428
 2018-Aug-02 14:08  m  13 21 52.506173 -20 41 21.99242
 2018-Aug-02 14:09  m  13 21 52.515575 -20 41 22.02057
 2018-Aug-02 14:10  m  13 21 52.524978 -20 41 22.04872
 2018-Aug-02 14:11  m  13 21 52.534381 -20 41 22.07688
 2018-Aug-02 14:12  m  13 21 52.543784 -20 41 22.10505
 2018-Aug-02 14:13  m  13 21 52.553188 -20 41 22.13322
 2018-Aug-02 14:14  m  13 21 52.562592 -20 41 22.16140
 2018-Aug-02 14:15  m  13 21 52.571996 -20 41 22.18958
 2018-Aug-02 14:16  m  13 21 52.581401 -20 41 22.21777
 2018-Aug-02 14:17  m  13 21 52.590806 -20 41 22.24596
 2018-Aug-02 14:18  m  13 21 52.600211 -20 41 22.27416
 2018-Aug-02 14:19  m  13 21 52.609617 -20 41 22.30237
 2018-Aug-02 14:20  m  13 21 52.619023 -20 41 22.33058
 2018-Aug-02 14:21  m  13 21 52.628429 -20 41 22.35880
 2018-Aug-02 14:22  m  13 21 52.637836 -20 41 22.38703
 2018-Aug-02 14:23  m  13 21 52.647243 -20 41 22.41526
 2018-Aug-02 14:24  m  13 21 52.656650 -20 41 22.44349
 2018-Aug-02 14:25  m  13 21 52.666057 -20 41 22.47173
 2018-Aug-02 14:26  m  13 21 52.675465 -20 41 22.49998
 2018-Aug-02 14:27  m  13 21 52.684873 -20 41 22.52823
 2018-Aug-02 14:28  m  13 21 52.694282 -20 41 22.55649
 2018-Aug-02 14:29  m  13 21 52.703690 -20 41 22.58476
 2018-Aug-02 14:30  m  13 21 52.713099 -20 41 22.61303
 2018-Aug-02 14:31  m  13 21 52.722509 -20 41 22.64130
 2018-Aug-02 14:32  m  13 21 52.731918 -20 41 22.66959
 2018-Aug-02 14:33  m  13 21 52.741328 -20 41 22.69787
 2018-Aug-02 14:34  m  13 21 52.750738 -20 41 22.72617
 2018-Aug-02 14:35  m  13 21 52.760148 -20 41 22.75447
 2018-Aug-02 14:36  m  13 21 52.769558 -20 41 22.78277
 2018-Aug-02 14:37  m  13 21 52.778969 -20 41 22.81108
 2018-Aug-02 14:38  m  13 21 52.788380 -20 41 22.83940
 2018-Aug-02 14:39 Am  13 21 52.797791 -20 41 22.86773
 2018-Aug-02 14:40 Am  13 21 52.807203 -20 41 22.89605
 2018-Aug-02 14:41 Am  13 21 52.816614 -20 41 22.92439
 2018-Aug-02 14:42 Am  13 21 52.826026 -20 41 22.95273
 2018-Aug-02 14:43 Am  13 21 52.835438 -20 41 22.98108
 2018-Aug-02 14:44 Am  13 21 52.844850 -20 41 23.00943
 2018-Aug-02 14:45 Am  13 21 52.854263 -20 41 23.03779
 2018-Aug-02 14:46 Am  13 21 52.863675 -20 41 23.06615
 2018-Aug-02 14:47 Am  13 21 52.873088 -20 41 23.09452
 2018-Aug-02 14:48 Am  13 21 52.882501 -20 41 23.12290
 2018-Aug-02 14:49 Am  13 21 52.891915 -20 41 23.15128
 2018-Aug-02 14:50 Am  13 21 52.901328 -20 41 23.17967
 2018-Aug-02 14:51 Am  13 21 52.910742 -20 41 23.20806
 2018-Aug-02 14:52 Am  13 21 52.920156 -20 41 23.23646
 2018-Aug-02 14:53 Am  13 21 52.929570 -20 41 23.26487
 2018-Aug-02 14:54 Am  13 21 52.938984 -20 41 23.29328
 2018-Aug-02 14:55 Am  13 21 52.948398 -20 41 23.32170
 2018-Aug-02 14:56 Am  13 21 52.957812 -20 41 23.35012
 2018-Aug-02 14:57 Am  13 21 52.967227 -20 41 23.37855
 2018-Aug-02 14:58 Am  13 21 52.976642 -20 41 23.40698
 2018-Aug-02 14:59 Am  13 21 52.986057 -20 41 23.43543
 2018-Aug-02 15:00 Am  13 21 52.995472 -20 41 23.46387
 2018-Aug-02 15:01 Am  13 21 53.004887 -20 41 23.49233
 2018-Aug-02 15:02 Am  13 21 53.014302 -20 41 23.52078
 2018-Aug-02 15:03 Am  13 21 53.023718 -20 41 23.54925
 2018-Aug-02 15:04 Am  13 21 53.033133 -20 41 23.57772
 2018-Aug-02 15:05 Am  13 21 53.042549 -20 41 23.60619
 2018-Aug-02 15:06 Am  13 21 53.051965 -20 41 23.63468
 2018-Aug-02 15:07 Nm  13 21 53.061381 -20 41 23.66317
 2018-Aug-02 15:08 Nm  13 21 53.070797 -20 41 23.69166
 2018-Aug-02 15:09 Nm  13 21 53.080213 -20 41 23.72016
 2018-Aug-02 15:10 Nm  13 21 53.089629 -20 41 23.74866
 2018-Aug-02 15:11 Nm  13 21 53.099046 -20 41 23.77718
 2018-Aug-02 15:12 Nm  13 21 53.108462 -20 41 23.80569
 2018-Aug-02 15:13 Nm  13 21 53.117879 -20 41 23.83422
 2018-Aug-02 15:14 Nm  13 21 53.127295 -20 41 23.86275
 2018-Aug-02 15:15 Nm  13 21 53.136712 -20 41 23.89128
 2018-Aug-02 15:16 Nm  13 21 53.146128 -20 41 23.91982
 2018-Aug-02 15:17 Nm  13 21 53.155545 -20 41 23.94837
 2018-Aug-02 15:18 Nm  13 21 53.164962 -20 41 23.97692
 2018-Aug-02 15:19 Nm  13 21 53.174379 -20 41 24.00548
 2018-Aug-02 15:20 Nm  13 21 53.183796 -20 41 24.03404
 2018-Aug-02 15:21 Nm  13 21 53.193213 -20 41 24.06262
 2018-Aug-02 15:22 Nm  13 21 53.202630 -20 41 24.09119
